BEIDOU-2 IGSO-1 (C06)   
1 36828U 10036A   23259.35915594 -.00000123  00000+0  00000+0 0  9994
2 36828  54.2348 172.0642 0036516 188.2844 230.1362  1.00250221 48139
BEIDOU-2 G4 (C04)       
1 37210U 10057A   23259.48405639 -.00000109  00000+0  00000+0 0  9995
2 37210   1.2015  61.3784 0006292 154.0038 113.9730  1.00273893 47214
BEIDOU-2 IGSO-2 (C07)   
1 37256U 10068A   23259.47828918 -.00000171  00000+0  00000+0 0  9994
2 37256  49.3881 284.1579 0032317 213.1214 138.3832  1.00280410 46716
BEIDOU-2 IGSO-3 (C08)   
1 37384U 11013A   23259.29874510 -.00000160  00000+0  00000+0 0  9994
2 37384  60.9576  49.7800 0028240 175.2905 345.6784  1.00279083 45582
BEIDOU-2 IGSO-4 (C09)   
1 37763U 11038A   23258.59030260 -.00000095  00000+0  00000+0 0  9997
2 37763  54.5087 174.6141 0111898 228.0421 259.6769  1.00272091 44552
BEIDOU-2 IGSO-5 (C10)   
1 37948U 11073A   23259.54279663 -.00000123  00000+0  00000+0 0  9991
2 37948  49.5134 283.8257 0095064 220.6819 141.9989  1.00270144 43069
BEIDOU-2 G5 (C05)       
1 38091U 12008A   23259.58035574  .00000059  00000+0  00000+0 0  9992
2 38091   1.7367  68.5901 0003533 174.7988  19.5976  1.00276915 42299
BEIDOU-2 M3 (C11)       
1 38250U 12018A   23259.01144211 -.00000081  00000+0  00000+0 0  9993
2 38250  56.5046 338.4882 0023881 255.9304 103.8647  1.86231268 77226
BEIDOU-2 M4 (C12)       
1 38251U 12018B   23259.47978724 -.00000078  00000+0  00000+0 0  9994
2 38251  56.4149 337.7649 0014770 255.7725 104.1256  1.86231963 77238
BEIDOU-2 M6 (C14)       
1 38775U 12050B   23259.18968416  .00000030  00000+0  00000+0 0  9993
2 38775  55.6999  96.3696 0011329 340.2504  19.7902  1.86231324 74591
BEIDOU-2 G6 (C02)       
1 38953U 12059A   23259.55674521 -.00000172  00000+0  00000+0 0  9990
2 38953   1.8544  81.8785 0007432 311.5478 246.2328  1.00275390 39831
BEIDOU-3S IGSO-1S (C31) 
1 40549U 15019A   23259.52749230 -.00000132  00000+0  00000+0 0  9996
2 40549  51.0781 307.4291 0040791 196.3975 134.1592  1.00254139 30994
BEIDOU-3S M2S (C57)     
1 40748U 15037A   23258.60851853 -.00000081  00000+0  00000+0 0  9993
2 40748  55.6555 336.3862 0011698 242.4015 117.5413  1.86233229 55390
BEIDOU-3S M1S (C58)     
1 40749U 15037B   23258.87863534 -.00000080  00000+0  00000+0 0  9991
2 40749  55.6584 336.3633 0003594 297.6799  62.3457  1.86233016 55407
BEIDOU-3S IGSO-2S (C56) 
1 40938U 15053A   23259.39665473 -.00000107  00000+0  00000+0 0  9999
2 40938  50.7928 270.6040 0047739 194.7994 128.8260  1.00280818 29274
BEIDOU-2 IGSO-6 (C13)   
1 41434U 16021A   23259.35569760 -.00000140  00000+0  00000+0 0  9992
2 41434  58.7719  48.1444 0047783 218.2085 313.4056  1.00281050 27407
BEIDOU-2 G7 (C03)       
1 41586U 16037A   23259.53889789 -.00000349  00000+0  00000+0 0  9994
2 41586   1.8976  68.5744 0006679 343.8277 247.2292  1.00264995 26713
BEIDOU-3 M1 (C19)       
1 43001U 17069A   23257.88211031  .00000032  00000+0  00000+0 0  9997
2 43001  55.8501  96.4738 0007510 301.3994  58.6158  1.86231784 39862
BEIDOU-3 M2 (C20)       
1 43002U 17069B   23258.89276465  .00000031  00000+0  00000+0 0  9991
2 43002  55.8504  96.4760 0005920 334.7882  25.2687  1.86231266 39873
BEIDOU-3 M7 (C27)       
1 43107U 18003A   23258.64353071 -.00000082  00000+0  00000+0 0  9995
2 43107  55.1118 337.0967 0003283  77.8655 282.2313  1.86232608 38623
BEIDOU-3 M8 (C28)       
1 43108U 18003B   23259.11868188 -.00000081  00000+0  00000+0 0  9998
2 43108  55.1045 337.0672 0004217 244.7754 115.2421  1.86231055 38641
BEIDOU-3 M4 (C22)       
1 43207U 18018A   23259.02402306  .00000031  00000+0  00000+0 0  9994
2 43207  55.8096  96.5343 0004676  16.9850 343.1161  1.86231675 38024
BEIDOU-3 M3 (C21)       
1 43208U 18018B   23258.01678243  .00000032  00000+0  00000+0 0  9999
2 43208  55.8085  96.5724 0005521 319.7345  40.3131  1.86231620 38000
BEIDOU-3 M9 (C29)       
1 43245U 18029A   23258.77651050 -.00000079  00000+0  00000+0 0  9994
2 43245  55.0056 334.8254 0001485 220.8382 139.2139  1.86232869 37174
BEIDOU-3 M10 (C30)      
1 43246U 18029B   23259.24347569 -.00000078  00000+0  00000+0 0  9994
2 43246  55.0025 334.8374 0002734 351.5482   8.5112  1.86233080 37169
BEIDOU-2 IGSO-7 (C16)   
1 43539U 18057A   23259.43388851 -.00000135  00000+0  00000+0 0  9994
2 43539  55.1189 171.7538 0064089 230.9768 222.2563  1.00280262 19079
BEIDOU-3 M5 (C23)       
1 43581U 18062A   23259.46366991  .00000022  00000+0  00000+0 0  9995
2 43581  54.1757 216.4992 0005015 283.9859  75.9221  1.86232018 34925
BEIDOU-3 M6 (C24)       
1 43582U 18062B   23259.32972636  .00000020  00000+0  00000+0 0  9998
2 43582  54.1753 216.4934 0005260 359.0220   0.9401  1.86229881 34929
BEIDOU-3 M12 (C26)      
1 43602U 18067A   23259.26591719  .00000019  00000+0  00000+0 0  9996
2 43602  54.2629 215.1518 0007112  13.6156 346.3671  1.86231562 34406
BEIDOU-3 M11 (C25)      
1 43603U 18067B   23258.32584239  .00000008  00000+0  00000+0 0  9990
2 43603  54.2602 215.1494 0004187 358.6478   1.3118  1.86231541 34411
BEIDOU-3 M13 (C32)      
1 43622U 18072A   23259.35870711  .00000030  00000+0  00000+0 0  9999
2 43622  55.7797  96.0626 0004224 297.2250  62.8153  1.86231666 33940
BEIDOU-3 M14 (C33)      
1 43623U 18072B   23259.22416363  .00000030  00000+0  00000+0 0  9995
2 43623  55.7814  96.0598 0002790 349.9977  10.0806  1.86231677 33937
BEIDOU-3 M16 (C35)      
1 43647U 18078A   23259.38686896 -.00000077  00000+0  00000+0 0  9996
2 43647  54.9012 334.9254 0005911   7.2190 352.8535  1.86227391 33446
BEIDOU-3 M15 (C34)      
1 43648U 18078B   23258.98021018 -.00000079  00000+0  00000+0 0  9993
2 43648  54.8970 334.9433 0002756  18.2489 341.8243  1.86232375 33458
BEIDOU-3 G1 (C59)       
1 43683U 18085A   23259.55694340 -.00000274  00000+0  00000+0 0  9995
2 43683   1.5388 123.5635 0003010 352.1413 220.0991  1.00275257 17986
BEIDOU-3 M17 (C36)      
1 43706U 18093A   23259.12812690  .00000018  00000+0  00000+0 0  9998
2 43706  54.2583 216.4288 0010115 281.9218  77.9273  1.86232105 32827
BEIDOU-3 M18 (C37)      
1 43707U 18093B   23258.99422241  .00000016  00000+0  00000+0 0  9990
2 43707  54.2590 216.4250 0008451 307.4929  52.3924  1.86229927 32815
BEIDOU-3 IGSO-1 (C38)   
1 44204U 19023A   23259.31160404 -.00000194  00000+0  00000+0 0  9992
2 44204  57.2385  48.1180 0023847 195.1364 343.8544  1.00279337 16269
BEIDOU-2 G8 (C01)       
1 44231U 19027A   23259.54218144 -.00000244  00000+0  00000+0 0  9992
2 44231   1.9846  81.0691 0006605 132.3374 121.4847  1.00268402 16006
BEIDOU-3 IGSO-2 (C39)   
1 44337U 19035A   23259.40125659 -.00000134  00000+0  00000+0 0  9999
2 44337  55.1520 167.6869 0032828 196.5042 255.0677  1.00271182 15598
BEIDOU-3 M24 (C46)      
1 44542U 19061A   23259.06584550  .00000017  00000+0  00000+0 0  9996
2 44542  54.4855 216.6629 0008459 341.6648  18.2669  1.86231558 27079
BEIDOU-3 M23 (C45)      
1 44543U 19061B   23259.51192623  .00000023  00000+0  00000+0 0  9990
2 44543  54.4839 216.6172 0005925 326.2191 244.6973  1.86231942 27083
BEIDOU-3 IGSO-3 (C40)   
1 44709U 19073A   23258.49287926 -.00000143  00000+0  00000+0 0  9998
2 44709  56.5156 291.6337 0035244 190.2455 169.7763  1.00278777 14372
BEIDOU-3 M22 (C44)      
1 44793U 19078A   23257.30041595 -.00000085  00000+0  00000+0 0  9990
2 44793  54.7508 334.9633 0004774  17.2182 342.8571  1.86232401 25893
BEIDOU-3 M21 (C43)      
1 44794U 19078B   23259.04180993 -.00000079  00000+0  00000+0 0  9993
2 44794  54.7236 334.8849 0002741   5.3119 354.7544  1.86232788 25935
BEIDOU-3 M19 (C41)      
1 44864U 19090A   23259.01993897  .00000031  00000+0  00000+0 0  9994
2 44864  55.7136  96.2604 0015280 275.2238 263.9509  1.86231982 25514
BEIDOU-3 M20 (C42)      
1 44865U 19090B   23259.41395218  .00000030  00000+0  00000+0 0  9991
2 44865  55.7157  96.2801 0013109 290.5432 242.5818  1.86231926 25504
BEIDOU-3 G2 (C60)       
1 45344U 20017A   23259.53983786 -.00000138  00000+0  00000+0 0  9991
2 45344   2.0554  16.7773 0003119 161.3184  91.5237  1.00272133 13186
BEIDOU-3 G3 (C61)       
1 45807U 20040A   23259.62741347 -.00000351  00000+0  00000+0 0  9993
2 45807   0.6071 346.1715 0005988 328.4730  17.1121  1.00269756 11993
BEIDOU-3 G4             
1 56564U 23066A   23259.48405639 -.00000112  00000+0  00000+0 0  9996
2 56564   2.8169 288.7487 0006711 214.6691 186.0355  1.00273120  1322
